CCSDS_OMM_VERS = 2.0
CREATION_DATE  = 
ORIGINATOR     = 

OBJECT_NAME    = AQUA
OBJECT_ID      = 2002-022A
CENTER_NAME    = EARTH
REF_FRAME      = TEME
TIME_SYSTEM    = UTC
MEAN_ELEMENT_THEORY = SGP/SGP4

EPOCH          = 2026-03-07T15:07:15.932064
MEAN_MOTION    = 14.61971555
ECCENTRICITY   = .00005786
INCLINATION    = 98.4173
RA_OF_ASC_NODE = 33.9574
ARG_OF_PERICENTER = 71.1611
MEAN_ANOMALY   = 343.2161

EPHEMERIS_TYPE = 0
CLASSIFICATION_TYPE = U
NORAD_CAT_ID   = 27424
ELEMENT_SET_NO = 999
REV_AT_EPOCH   = 26843
BSTAR          = .31372685E-3
MEAN_MOTION_DOT = .1523E-4
MEAN_MOTION_DDOT = 0

CCSDS_OMM_VERS = 2.0
CREATION_DATE  = 
ORIGINATOR     = 

OBJECT_NAME    = CZ-4B R/B
OBJECT_ID      = 2002-024C
CENTER_NAME    = EARTH
REF_FRAME      = TEME
TIME_SYSTEM    = UTC
MEAN_ELEMENT_THEORY = SGP/SGP4

EPOCH          = 2026-03-07T14:45:34.012800
MEAN_MOTION    = 14.14547340
ECCENTRICITY   = .00505813
INCLINATION    = 98.8843
RA_OF_ASC_NODE = 120.0321
ARG_OF_PERICENTER = 30.0715
MEAN_ANOMALY   = 122.6422

EPHEMERIS_TYPE = 0
CLASSIFICATION_TYPE = U
NORAD_CAT_ID   = 27432
ELEMENT_SET_NO = 999
REV_AT_EPOCH   = 22894
BSTAR          = .52103351E-4
MEAN_MOTION_DOT = .57E-6
MEAN_MOTION_DDOT = 0

CCSDS_OMM_VERS = 2.0
CREATION_DATE  = 
ORIGINATOR     = 

OBJECT_NAME    = MIDORI II (ADEOS-II)
OBJECT_ID      = 2002-056A
CENTER_NAME    = EARTH
REF_FRAME      = TEME
TIME_SYSTEM    = UTC
MEAN_ELEMENT_THEORY = SGP/SGP4

EPOCH          = 2026-03-07T15:12:19.463904
MEAN_MOTION    = 14.29283354
ECCENTRICITY   = .00016784
INCLINATION    = 98.7767
RA_OF_ASC_NODE = 25.0969
ARG_OF_PERICENTER = 45.9691
MEAN_ANOMALY   = 314.1628

EPHEMERIS_TYPE = 0
CLASSIFICATION_TYPE = U
NORAD_CAT_ID   = 27597
ELEMENT_SET_NO = 999
REV_AT_EPOCH   = 21000
BSTAR          = .19771222E-3
MEAN_MOTION_DOT = .458E-5
MEAN_MOTION_DDOT = 0

CCSDS_OMM_VERS = 2.0
CREATION_DATE  = 
ORIGINATOR     = 

OBJECT_NAME    = H-2A R/B
OBJECT_ID      = 2002-056E
CENTER_NAME    = EARTH
REF_FRAME      = TEME
TIME_SYSTEM    = UTC
MEAN_ELEMENT_THEORY = SGP/SGP4

EPOCH          = 2026-03-07T11:36:25.817760
MEAN_MOTION    = 14.33759243
ECCENTRICITY   = .00703702
INCLINATION    = 98.3200
RA_OF_ASC_NODE = 26.9332
ARG_OF_PERICENTER = 167.2179
MEAN_ANOMALY   = 302.8292

EPHEMERIS_TYPE = 0
CLASSIFICATION_TYPE = U
NORAD_CAT_ID   = 27601
ELEMENT_SET_NO = 999
REV_AT_EPOCH   = 21379
BSTAR          = .15443758E-3
MEAN_MOTION_DOT = .4E-5
MEAN_MOTION_DDOT = 0

CCSDS_OMM_VERS = 2.0
CREATION_DATE  = 
ORIGINATOR     = 

OBJECT_NAME    = CZ-4B R/B
OBJECT_ID      = 2003-049C
CENTER_NAME    = EARTH
REF_FRAME      = TEME
TIME_SYSTEM    = UTC
MEAN_ELEMENT_THEORY = SGP/SGP4

EPOCH          = 2026-03-07T14:17:35.946816
MEAN_MOTION    = 14.55018110
ECCENTRICITY   = .00471745
INCLINATION    = 98.6878
RA_OF_ASC_NODE = 61.4181
ARG_OF_PERICENTER = 237.4343
MEAN_ANOMALY   = 122.2292

EPHEMERIS_TYPE = 0
CLASSIFICATION_TYPE = U
NORAD_CAT_ID   = 28059
ELEMENT_SET_NO = 999
REV_AT_EPOCH   = 18629
BSTAR          = .14127749E-3
MEAN_MOTION_DOT = .566E-5
MEAN_MOTION_DDOT = 0

CCSDS_OMM_VERS = 2.0
CREATION_DATE  = 
ORIGINATOR     = 

OBJECT_NAME    = CZ-2C R/B
OBJECT_ID      = 2004-012C
CENTER_NAME    = EARTH
REF_FRAME      = TEME
TIME_SYSTEM    = UTC
MEAN_ELEMENT_THEORY = SGP/SGP4

EPOCH          = 2026-03-07T15:01:43.247136
MEAN_MOTION    = 15.64209559
ECCENTRICITY   = .00131193
INCLINATION    = 97.7231
RA_OF_ASC_NODE = 131.7239
ARG_OF_PERICENTER = 317.9669
MEAN_ANOMALY   = 42.0581

EPHEMERIS_TYPE = 0
CLASSIFICATION_TYPE = U
NORAD_CAT_ID   = 28222
ELEMENT_SET_NO = 999
REV_AT_EPOCH   = 20395
BSTAR          = .75048854E-3
MEAN_MOTION_DOT = .72009E-3
MEAN_MOTION_DDOT = 0

CCSDS_OMM_VERS = 2.0
CREATION_DATE  = 
ORIGINATOR     = 

OBJECT_NAME    = SL-16 R/B
OBJECT_ID      = 2004-021B
CENTER_NAME    = EARTH
REF_FRAME      = TEME
TIME_SYSTEM    = UTC
MEAN_ELEMENT_THEORY = SGP/SGP4

EPOCH          = 2026-03-07T14:50:37.093632
MEAN_MOTION    = 14.14598705
ECCENTRICITY   = .00039053
INCLINATION    = 70.9994
RA_OF_ASC_NODE = 236.8392
ARG_OF_PERICENTER = 12.7873
MEAN_ANOMALY   = 347.3348

EPHEMERIS_TYPE = 0
CLASSIFICATION_TYPE = U
NORAD_CAT_ID   = 28353
ELEMENT_SET_NO = 999
REV_AT_EPOCH   = 12254
BSTAR          = -.90298063E-4
MEAN_MOTION_DOT = -.221E-5
MEAN_MOTION_DDOT = 0

CCSDS_OMM_VERS = 2.0
CREATION_DATE  = 
ORIGINATOR     = 

OBJECT_NAME    = CZ-4B R/B
OBJECT_ID      = 2004-035C
CENTER_NAME    = EARTH
REF_FRAME      = TEME
TIME_SYSTEM    = UTC
MEAN_ELEMENT_THEORY = SGP/SGP4

EPOCH          = 2026-03-07T14:50:59.885088
MEAN_MOTION    = 15.29018515
ECCENTRICITY   = .00312301
INCLINATION    = 97.3499
RA_OF_ASC_NODE = 100.8859
ARG_OF_PERICENTER = 339.1896
MEAN_ANOMALY   = 20.8070

EPHEMERIS_TYPE = 0
CLASSIFICATION_TYPE = U
NORAD_CAT_ID   = 28415
ELEMENT_SET_NO = 999
REV_AT_EPOCH   = 17959
BSTAR          = .40525372E-3
MEAN_MOTION_DOT = .11516E-3
MEAN_MOTION_DDOT = 0

CCSDS_OMM_VERS = 2.0
CREATION_DATE  = 
ORIGINATOR     = 

OBJECT_NAME    = CZ-2C R/B
OBJECT_ID      = 2004-046B
CENTER_NAME    = EARTH
REF_FRAME      = TEME
TIME_SYSTEM    = UTC
MEAN_ELEMENT_THEORY = SGP/SGP4

EPOCH          = 2026-03-07T09:10:05.263968
MEAN_MOTION    = 14.26991150
ECCENTRICITY   = .01397565
INCLINATION    = 98.1985
RA_OF_ASC_NODE = 341.5096
ARG_OF_PERICENTER = 161.2384
MEAN_ANOMALY   = 199.4023

EPHEMERIS_TYPE = 0
CLASSIFICATION_TYPE = U
NORAD_CAT_ID   = 28480
ELEMENT_SET_NO = 999
REV_AT_EPOCH   = 10817
BSTAR          = .77268727E-4
MEAN_MOTION_DOT = .168E-5
MEAN_MOTION_DDOT = 0

CCSDS_OMM_VERS = 2.0
CREATION_DATE  = 
ORIGINATOR     = 

OBJECT_NAME    = ARIANE 5 R/B
OBJECT_ID      = 2004-049H
CENTER_NAME    = EARTH
REF_FRAME      = TEME
TIME_SYSTEM    = UTC
MEAN_ELEMENT_THEORY = SGP/SGP4

EPOCH          = 2026-03-07T11:26:42.424224
MEAN_MOTION    = 14.85261737
ECCENTRICITY   = .00840918
INCLINATION    = 98.2621
RA_OF_ASC_NODE = 234.8510
ARG_OF_PERICENTER = 359.1171
MEAN_ANOMALY   = 0.9881

EPHEMERIS_TYPE = 0
CLASSIFICATION_TYPE = U
NORAD_CAT_ID   = 28499
ELEMENT_SET_NO = 999
REV_AT_EPOCH   = 14546
BSTAR          = .13269131E-3
MEAN_MOTION_DOT = .1148E-4
MEAN_MOTION_DDOT = 0

CCSDS_OMM_VERS = 2.0
CREATION_DATE  = 
ORIGINATOR     = 

OBJECT_NAME    = CZ-2D R/B
OBJECT_ID      = 2005-024B
CENTER_NAME    = EARTH
REF_FRAME      = TEME
TIME_SYSTEM    = UTC
MEAN_ELEMENT_THEORY = SGP/SGP4

EPOCH          = 2026-03-07T14:13:25.430016
MEAN_MOTION    = 15.59917426
ECCENTRICITY   = .00062083
INCLINATION    = 97.3596
RA_OF_ASC_NODE = 81.6618
ARG_OF_PERICENTER = 52.1217
MEAN_ANOMALY   = 308.0601

EPHEMERIS_TYPE = 0
CLASSIFICATION_TYPE = U
NORAD_CAT_ID   = 28738
ELEMENT_SET_NO = 999
REV_AT_EPOCH   = 13945
BSTAR          = .68598261E-3
MEAN_MOTION_DOT = .55454E-3
MEAN_MOTION_DDOT = 0

CCSDS_OMM_VERS = 2.0
CREATION_DATE  = 
ORIGINATOR     = 

OBJECT_NAME    = ALOS (DAICHI)
OBJECT_ID      = 2006-002A
CENTER_NAME    = EARTH
REF_FRAME      = TEME
TIME_SYSTEM    = UTC
MEAN_ELEMENT_THEORY = SGP/SGP4

EPOCH          = 2026-03-07T11:03:18.067392
MEAN_MOTION    = 14.69802772
ECCENTRICITY   = .00010134
INCLINATION    = 98.1218
RA_OF_ASC_NODE = 22.4273
ARG_OF_PERICENTER = 56.0843
MEAN_ANOMALY   = 304.0459

EPHEMERIS_TYPE = 0
CLASSIFICATION_TYPE = U
NORAD_CAT_ID   = 28931
ELEMENT_SET_NO = 999
REV_AT_EPOCH   = 7315
BSTAR          = .38620928E-3
MEAN_MOTION_DOT = .2256E-4
MEAN_MOTION_DDOT = 0

